[
    {
        "CCSDS_OMM_VERS": "3.0",
        "COMMENT": "GENERATED VIA SPACE-TRACK.ORG API",
        "CREATION_DATE": "2025-03-01T17:52:32",
        "ORIGINATOR": "18 SPCS",
        "OBJECT_NAME": "BEIDOU 3M17",
        "OBJECT_ID": "2018-093A",
        "CENTER_NAME": "EARTH",
        "REF_FRAME": "TEME",
        "TIME_SYSTEM": "UTC",
        "MEAN_ELEMENT_THEORY": "SGP4",
        "EPOCH": "2025-03-01T06:01:47.072064",
        "MEAN_MOTION": "1.86228099",
        "ECCENTRICITY": "0.00066530",
        "INCLINATION": "54.1927",
        "RA_OF_ASC_NODE": "198.3410",
        "ARG_OF_PERICENTER": "291.8074",
        "MEAN_ANOMALY": "68.0722",
        "EPHEMERIS_TYPE": "0",
        "CLASSIFICATION_TYPE": "U",
        "NORAD_CAT_ID": "43706",
        "ELEMENT_SET_NO": "999",
        "REV_AT_EPOCH": "4273",
        "BSTAR": "0.00000000000000",
        "MEAN_MOTION_DOT": "0.00000037",
        "MEAN_MOTION_DDOT": "0.0000000000000",
        "SEMIMAJOR_AXIS": "27906.478",
        "PERIOD": "773.245",
        "APOAPSIS": "21546.910",
        "PERIAPSIS": "21509.777",
        "OBJECT_TYPE": "PAYLOAD",
        "RCS_SIZE": "LARGE",
        "COUNTRY_CODE": "PRC",
        "LAUNCH_DATE": "2018-11-18",
        "SITE": "XSC",
        "DECAY_DATE": null,
        "FILE": "4656182",
        "GP_ID": "282004706",
        "TLE_LINE0": "0 BEIDOU 3M17",
        "TLE_LINE1": "1 43706U 18093A   25060.25123926  .00000037  00000-0  00000-0 0  9994",
        "TLE_LINE2": "2 43706  54.1927 198.3410 0006653 291.8074  68.0722  1.86228099 42733"
    }
]